SL-14 R/B               
1 16496U 86006B   26115.76372749  .00000632  00000+0  63950-4 0  9993
2 16496  82.5293 215.4356 0077838 116.2272 244.6973 14.86890952156208
COSMOS 1743             
1 16719U 86034A   26115.77026161  .00044079  00000+0  49097-3 0  9995
2 16719  82.5325  24.2675 0007539 104.1152 256.0945 15.62615159187597
SL-14 R/B               
1 16792U 86046B   26115.82040743  .00000456  00000+0  49598-4 0  9995
2 16792  82.4845  35.6502 0024644  73.3343 287.0575 14.85634462133400
SL-14 R/B               
1 16882U 86055B   26115.94884449  .00000470  00000+0  51216-4 0  9993
2 16882  82.5187  82.2378 0019047 171.0404 249.2348 14.85682972126380
AJISAI (EGS)            
1 16908U 86061A   26115.95602755 -.00000078  00000+0  13689-3 0  9994
2 16908  50.0099 308.0065 0011426  48.2152 111.0255 12.44515986473887
SL-14 R/B               
1 17567U 87024B   26115.90400991  .00000474  00000+0  51025-4 0  9995
2 17567  82.5297  48.3833 0019791 103.1778 257.1648 14.86175548 95145
COSMOS 1833             
1 17589U 87027A   26115.72334739 -.00000216  00000+0 -89659-4 0  9998
2 17589  70.9164 227.1519 0022413 141.6730 218.5990 14.13033899 16967
SL-16 R/B               
1 17590U 87027B   26115.63089423  .00000229  00000+0  13739-3 0  9994
2 17590  71.0026 177.5782 0003623  26.6364 333.4946 14.17170989 21998
SL-14 R/B               
1 17912U 87038B   26115.85578378  .00000451  00000+0  49429-4 0  9993
2 17912  82.5004 252.3614 0019482  13.2668 346.9056 14.85410385 86235
COSMOS 1844             
1 17973U 87041A   26115.92018957 -.00000309  00000+0 -13493-3 0  9999
2 17973  70.8981 294.5544 0032809 308.7666  51.0525 14.14560443 10262
SL-14 R/B               
1 18153U 87055B   26115.89176027  .00000443  00000+0  48155-4 0  9995
2 18153  82.4967 304.5367 0019738 214.0865 145.9085 14.85669282 76947
COSMOS 1867             
1 18187U 87060A   26115.52783664 -.00000052  00000+0  18104-4 0  9997
2 18187  65.0100 175.5336 0015405 280.9876  78.9475 14.31509649 26644
SL-14 R/B               
1 18749U 88001B   26115.55356120  .00000311  00000+0  33075-4 0  9994
2 18749  82.5124 151.2924 0019637  84.2168 276.1286 14.85570076 48986
COSMOS 1933             
1 18958U 88020A   26115.71743431  .00003856  00000+0  18608-3 0  9991
2 18958  82.5152 204.3758 0004981  53.4831 306.6861 15.18389621 57366
SL-3 R/B                
1 19046U 88032B   26115.92856814  .00005483  00000+0  25245-3 0  9999
2 19046  97.5236  99.0491 0027538  70.7875 289.6337 15.20388835 59280
SL-16 R/B               
1 19120U 88039B   26115.83786572  .00000168  00000+0  10212-3 0  9995
2 19120  71.0152 328.8546 0024085 267.8179  92.0189 14.19623619965074
COSMOS 1953             
1 19210U 88050A   26115.94516740  .00008604  00000+0  30207-3 0  9997
2 19210  82.5050 110.6815 0009410 325.9811  34.0824 15.29215606 45007
