[{"OBJECT_NAME":"SL-14 R/B","OBJECT_ID":"1986-006B","EPOCH":"2026-04-25T18:19:46.055136","MEAN_MOTION":14.86890952,"ECCENTRICITY":0.00778386,"INCLINATION":82.5293,"RA_OF_ASC_NODE":215.4356,"ARG_OF_PERICENTER":116.2272,"MEAN_ANOMALY":244.6973,"EPHEMERIS_TYPE":0,"CLASSIFICATION_TYPE":"U","NORAD_CAT_ID":16496,"ELEMENT_SET_NO":999,"REV_AT_EPOCH":15620,"BSTAR":6.3949653e-5,"MEAN_MOTION_DOT":6.32e-6,"MEAN_MOTION_DDOT":0},{"OBJECT_NAME":"COSMOS 1743","OBJECT_ID":"1986-034A","EPOCH":"2026-04-25T18:29:10.603104","MEAN_MOTION":15.62615159,"ECCENTRICITY":0.00075395,"INCLINATION":82.5325,"RA_OF_ASC_NODE":24.2675,"ARG_OF_PERICENTER":104.1152,"MEAN_ANOMALY":256.0945,"EPHEMERIS_TYPE":0,"CLASSIFICATION_TYPE":"U","NORAD_CAT_ID":16719,"ELEMENT_SET_NO":999,"REV_AT_EPOCH":18759,"BSTAR":0.00049096628,"MEAN_MOTION_DOT":0.00044079,"MEAN_MOTION_DDOT":0},{"OBJECT_NAME":"SL-14 R/B","OBJECT_ID":"1986-046B","EPOCH":"2026-04-25T19:41:23.201952","MEAN_MOTION":14.85634462,"ECCENTRICITY":0.00246444,"INCLINATION":82.4845,"RA_OF_ASC_NODE":35.6502,"ARG_OF_PERICENTER":73.3343,"MEAN_ANOMALY":287.0575,"EPHEMERIS_TYPE":0,"CLASSIFICATION_TYPE":"U","NORAD_CAT_ID":16792,"ELEMENT_SET_NO":999,"REV_AT_EPOCH":13340,"BSTAR":4.9597617e-5,"MEAN_MOTION_DOT":4.56e-6,"MEAN_MOTION_DDOT":0},{"OBJECT_NAME":"SL-14 R/B","OBJECT_ID":"1986-055B","EPOCH":"2026-04-25T22:46:20.163936","MEAN_MOTION":14.85682972,"ECCENTRICITY":0.00190479,"INCLINATION":82.5187,"RA_OF_ASC_NODE":82.2378,"ARG_OF_PERICENTER":171.0404,"MEAN_ANOMALY":249.2348,"EPHEMERIS_TYPE":0,"CLASSIFICATION_TYPE":"U","NORAD_CAT_ID":16882,"ELEMENT_SET_NO":999,"REV_AT_EPOCH":12638,"BSTAR":5.121606e-5,"MEAN_MOTION_DOT":4.7e-6,"MEAN_MOTION_DDOT":0},{"OBJECT_NAME":"AJISAI (EGS)","OBJECT_ID":"1986-061A","EPOCH":"2026-04-25T22:56:40.780320","MEAN_MOTION":12.44515986,"ECCENTRICITY":0.00114269,"INCLINATION":50.0099,"RA_OF_ASC_NODE":308.0065,"ARG_OF_PERICENTER":48.2152,"MEAN_ANOMALY":111.0255,"EPHEMERIS_TYPE":0,"CLASSIFICATION_TYPE":"U","NORAD_CAT_ID":16908,"ELEMENT_SET_NO":999,"REV_AT_EPOCH":47388,"BSTAR":0.00013689139,"MEAN_MOTION_DOT":-7.8e-7,"MEAN_MOTION_DDOT":0},{"OBJECT_NAME":"SL-14 R/B","OBJECT_ID":"1987-024B","EPOCH":"2026-04-25T21:41:46.456224","MEAN_MOTION":14.86175548,"ECCENTRICITY":0.00197919,"INCLINATION":82.5297,"RA_OF_ASC_NODE":48.3833,"ARG_OF_PERICENTER":103.1778,"MEAN_ANOMALY":257.1648,"EPHEMERIS_TYPE":0,"CLASSIFICATION_TYPE":"U","NORAD_CAT_ID":17567,"ELEMENT_SET_NO":999,"REV_AT_EPOCH":9514,"BSTAR":5.1025343e-5,"MEAN_MOTION_DOT":4.74e-6,"MEAN_MOTION_DDOT":0},{"OBJECT_NAME":"COSMOS 1833","OBJECT_ID":"1987-027A","EPOCH":"2026-04-25T17:21:37.214496","MEAN_MOTION":14.13033899,"ECCENTRICITY":0.00224132,"INCLINATION":70.9164,"RA_OF_ASC_NODE":227.1519,"ARG_OF_PERICENTER":141.673,"MEAN_ANOMALY":218.599,"EPHEMERIS_TYPE":0,"CLASSIFICATION_TYPE":"U","NORAD_CAT_ID":17589,"ELEMENT_SET_NO":999,"REV_AT_EPOCH":1696,"BSTAR":-8.9658804e-5,"MEAN_MOTION_DOT":-2.16e-6,"MEAN_MOTION_DDOT":0},{"OBJECT_NAME":"SL-16 R/B","OBJECT_ID":"1987-027B","EPOCH":"2026-04-25T15:08:29.261472","MEAN_MOTION":14.17170989,"ECCENTRICITY":0.0003623,"INCLINATION":71.0026,"RA_OF_ASC_NODE":177.5782,"ARG_OF_PERICENTER":26.6364,"MEAN_ANOMALY":333.4946,"EPHEMERIS_TYPE":0,"CLASSIFICATION_TYPE":"U","NORAD_CAT_ID":17590,"ELEMENT_SET_NO":999,"REV_AT_EPOCH":2199,"BSTAR":0.00013739214,"MEAN_MOTION_DOT":2.29e-6,"MEAN_MOTION_DDOT":0},{"OBJECT_NAME":"SL-14 R/B","OBJECT_ID":"1987-038B","EPOCH":"2026-04-25T20:32:19.718592","MEAN_MOTION":14.85410385,"ECCENTRICITY":0.00194821,"INCLINATION":82.5004,"RA_OF_ASC_NODE":252.3614,"ARG_OF_PERICENTER":13.2668,"MEAN_ANOMALY":346.9056,"EPHEMERIS_TYPE":0,"CLASSIFICATION_TYPE":"U","NORAD_CAT_ID":17912,"ELEMENT_SET_NO":999,"REV_AT_EPOCH":8623,"BSTAR":4.9429311e-5,"MEAN_MOTION_DOT":4.51e-6,"MEAN_MOTION_DDOT":0},{"OBJECT_NAME":"COSMOS 1844","OBJECT_ID":"1987-041A","EPOCH":"2026-04-25T22:05:04.378848","MEAN_MOTION":14.14560443,"ECCENTRICITY":0.00328099,"INCLINATION":70.8981,"RA_OF_ASC_NODE":294.5544,"ARG_OF_PERICENTER":308.7666,"MEAN_ANOMALY":51.0525,"EPHEMERIS_TYPE":0,"CLASSIFICATION_TYPE":"U","NORAD_CAT_ID":17973,"ELEMENT_SET_NO":999,"REV_AT_EPOCH":1026,"BSTAR":-0.00013492747,"MEAN_MOTION_DOT":-3.09e-6,"MEAN_MOTION_DDOT":0},{"OBJECT_NAME":"SL-14 R/B","OBJECT_ID":"1987-055B","EPOCH":"2026-04-25T21:24:08.087328","MEAN_MOTION":14.85669282,"ECCENTRICITY":0.00197385,"INCLINATION":82.4967,"RA_OF_ASC_NODE":304.5367,"ARG_OF_PERICENTER":214.0865,"MEAN_ANOMALY":145.9085,"EPHEMERIS_TYPE":0,"CLASSIFICATION_TYPE":"U","NORAD_CAT_ID":18153,"ELEMENT_SET_NO":999,"REV_AT_EPOCH":7694,"BSTAR":4.815504e-5,"MEAN_MOTION_DOT":4.43e-6,"MEAN_MOTION_DDOT":0},{"OBJECT_NAME":"COSMOS 1867","OBJECT_ID":"1987-060A","EPOCH":"2026-04-25T12:40:05.085696","MEAN_MOTION":14.31509649,"ECCENTRICITY":0.00154054,"INCLINATION":65.01,"RA_OF_ASC_NODE":175.5336,"ARG_OF_PERICENTER":280.9876,"MEAN_ANOMALY":78.9475,"EPHEMERIS_TYPE":0,"CLASSIFICATION_TYPE":"U","NORAD_CAT_ID":18187,"ELEMENT_SET_NO":999,"REV_AT_EPOCH":2664,"BSTAR":1.8103645e-5,"MEAN_MOTION_DOT":-5.2e-7,"MEAN_MOTION_DDOT":0},{"OBJECT_NAME":"SL-14 R/B","OBJECT_ID":"1988-001B","EPOCH":"2026-04-25T13:17:07.687680","MEAN_MOTION":14.85570076,"ECCENTRICITY":0.00196378,"INCLINATION":82.5124,"RA_OF_ASC_NODE":151.2924,"ARG_OF_PERICENTER":84.2168,"MEAN_ANOMALY":276.1286,"EPHEMERIS_TYPE":0,"CLASSIFICATION_TYPE":"U","NORAD_CAT_ID":18749,"ELEMENT_SET_NO":999,"REV_AT_EPOCH":4898,"BSTAR":3.3075302e-5,"MEAN_MOTION_DOT":3.11e-6,"MEAN_MOTION_DDOT":0},{"OBJECT_NAME":"COSMOS 1933","OBJECT_ID":"1988-020A","EPOCH":"2026-04-25T17:13:06.324384","MEAN_MOTION":15.18389621,"ECCENTRICITY":0.00049814,"INCLINATION":82.5152,"RA_OF_ASC_NODE":204.3758,"ARG_OF_PERICENTER":53.4831,"MEAN_ANOMALY":306.6861,"EPHEMERIS_TYPE":0,"CLASSIFICATION_TYPE":"U","NORAD_CAT_ID":18958,"ELEMENT_SET_NO":999,"REV_AT_EPOCH":5736,"BSTAR":0.00018607955,"MEAN_MOTION_DOT":3.856e-5,"MEAN_MOTION_DDOT":0},{"OBJECT_NAME":"SL-3 R/B","OBJECT_ID":"1988-032B","EPOCH":"2026-04-25T22:17:08.287296","MEAN_MOTION":15.20388835,"ECCENTRICITY":0.0027538,"INCLINATION":97.5236,"RA_OF_ASC_NODE":99.0491,"ARG_OF_PERICENTER":70.7875,"MEAN_ANOMALY":289.6337,"EPHEMERIS_TYPE":0,"CLASSIFICATION_TYPE":"U","NORAD_CAT_ID":19046,"ELEMENT_SET_NO":999,"REV_AT_EPOCH":5928,"BSTAR":0.00025245119,"MEAN_MOTION_DOT":5.483e-5,"MEAN_MOTION_DDOT":0},{"OBJECT_NAME":"SL-16 R/B","OBJECT_ID":"1988-039B","EPOCH":"2026-04-25T20:06:31.598208","MEAN_MOTION":14.19623619,"ECCENTRICITY":0.0024085,"INCLINATION":71.0152,"RA_OF_ASC_NODE":328.8546,"ARG_OF_PERICENTER":267.8179,"MEAN_ANOMALY":92.0189,"EPHEMERIS_TYPE":0,"CLASSIFICATION_TYPE":"U","NORAD_CAT_ID":19120,"ELEMENT_SET_NO":999,"REV_AT_EPOCH":96507,"BSTAR":0.00010212351,"MEAN_MOTION_DOT":1.68e-6,"MEAN_MOTION_DDOT":0},{"OBJECT_NAME":"COSMOS 1953","OBJECT_ID":"1988-050A","EPOCH":"2026-04-25T22:41:02.463360","MEAN_MOTION":15.29215606,"ECCENTRICITY":0.000941,"INCLINATION":82.505,"RA_OF_ASC_NODE":110.6815,"ARG_OF_PERICENTER":325.9811,"MEAN_ANOMALY":34.0824,"EPHEMERIS_TYPE":0,"CLASSIFICATION_TYPE":"U","NORAD_CAT_ID":19210,"ELEMENT_SET_NO":999,"REV_AT_EPOCH":4500,"BSTAR":0.00030206702,"MEAN_MOTION_DOT":8.604e-5,"MEAN_MOTION_DDOT":0}]
